{"fetched_at":"2026-03-29T02:12:04Z","count":15717,"tles":[{"name":"STARLINK-35037","line1":"1 65483U 25195AB  26087.49299209  .00024016  00000+0  82004-3 0  9994","line2":"2 65483  53.1598 170.7348 0001393  79.8877 280.2281 15.30212826 32852","category":"Starlink"}]}