{
  "norad_id": 65483,
  "name": "STARLINK-35037",
  "history": [
    {
      "epoch": "2026-03-28T11:49:54.516576",
      "apogee_km": 476.1319884364784,
      "perigee_km": 474.2215586889597,
      "latitude_deg": 4.9902369567106595,
      "longitude_deg": 55.62724064011127,
      "semi_major_axis_km": 6853.313773562719,
      "eccentricity": 0.00013938,
      "inclination_deg": 53.1598,
      "raan_deg": 170.7348,
      "arg_perigee_deg": 79.8877,
      "mean_anomaly_deg": 280.2281,
      "mean_motion_rev_day": 15.30212826
    }
  ]
}